$$SOE
2460154.500000000, A.D. 2023-Jul-29 00:00:00.0000, 3.272327620824127E+09, 2.927219193623732E+09, -1.612454582555254E+09,
2460161.500000000, A.D. 2023-Aug-05 00:00:00.0000, 3.269659611912452E+09, 2.929954373644871E+09, -1.613711034094812E+09,
2460168.500000000, A.D. 2023-Aug-12 00:00:00.0000, 3.266989963057740E+09, 2.932688133673968E+09, -1.614966715936392E+09,
2460175.500000000, A.D. 2023-Aug-19 00:00:00.0000, 3.264318673810408E+09, 2.935420470212140E+09, -1.616221627500542E+09,
2460182.500000000, A.D. 2023-Aug-26 00:00:00.0000, 3.261645744027882E+09, 2.938151379364040E+09, -1.617475768233097E+09,
2460189.500000000, A.D. 2023-Sep-02 00:00:00.0000, 3.258971173852340E+09, 2.940880856856544E+09, -1.618729137603764E+09,
2460196.500000000, A.D. 2023-Sep-09 00:00:00.0000, 3.256294963702080E+09, 2.943608897944899E+09, -1.619981735116066E+09,
2460203.500000000, A.D. 2023-Sep-16 00:00:00.0000, 3.253617114444939E+09, 2.946335497148339E+09, -1.621233560348772E+09,
2460210.500000000, A.D. 2023-Sep-23 00:00:00.0000, 3.250937628170169E+09, 2.949060648101939E+09, -1.622484613043519E+09,
2460217.500000000, A.D. 2023-Sep-30 00:00:00.0000, 3.248256509219213E+09, 2.951784344715434E+09, -1.623734893110052E+09,
2460224.500000000, A.D. 2023-Oct-07 00:00:00.0000, 3.245573763121625E+09, 2.954506583096186E+09, -1.624984400377439E+09,
2460231.500000000, A.D. 2023-Oct-14 00:00:00.0000, 3.242889394476063E+09, 2.957227360923107E+09, -1.626233134457226E+09,
2460238.500000000, A.D. 2023-Oct-21 00:00:00.0000, 3.240203407004919E+09, 2.959946675874285E+09, -1.627481094883516E+09,
2460245.500000000, A.D. 2023-Oct-28 00:00:00.0000, 3.237515804358257E+09, 2.962664525368424E+09, -1.628728281214368E+09,
2460252.500000000, A.D. 2023-Nov-04 00:00:00.0000, 3.234826590417025E+09, 2.965380906849698E+09, -1.629974693042599E+09,
2460259.500000000, A.D. 2023-Nov-11 00:00:00.0000, 3.232135769273088E+09, 2.968095818016158E+09, -1.631220329980997E+09,
2460266.500000000, A.D. 2023-Nov-18 00:00:00.0000, 3.229443345105615E+09, 2.970809256927374E+09, -1.632465191647121E+09,
2460273.500000000, A.D. 2023-Nov-25 00:00:00.0000, 3.226749322026598E+09, 2.973521222013880E+09, -1.633709277652263E+09,
2460280.500000000, A.D. 2023-Dec-02 00:00:00.0000, 3.224053703923748E+09, 2.976231711977213E+09, -1.634952587597920E+09,
2460287.500000000, A.D. 2023-Dec-09 00:00:00.0000, 3.221356494378533E+09, 2.978940725521653E+09, -1.636195121091595E+09,
2460294.500000000, A.D. 2023-Dec-16 00:00:00.0000, 3.218657696946951E+09, 2.981648260930209E+09, -1.637436877807258E+09,
2460301.500000000, A.D. 2023-Dec-23 00:00:00.0000, 3.215957316151468E+09, 2.984354316172317E+09, -1.638677857566273E+09,
2460308.500000000, A.D. 2023-Dec-30 00:00:00.0000, 3.213255357843904E+09, 2.987058890592480E+09, -1.639918060230238E+09,
2460315.500000000, A.D. 2024-Jan-06 00:00:00.0000, 3.210551827166822E+09, 2.989761985819158E+09, -1.641157485436254E+09,
2460322.500000000, A.D. 2024-Jan-13 00:00:00.0000, 3.207846727286157E+09, 2.992463604086997E+09, -1.642396132613536E+09,
2460329.500000000, A.D. 2024-Jan-20 00:00:00.0000, 3.205140060118642E+09, 2.995163747056951E+09, -1.643634001141747E+09,
2460336.500000000, A.D. 2024-Jan-27 00:00:00.0000, 3.202431827025303E+09, 2.997862415786541E+09, -1.644871090411943E+09,
2460343.500000000, A.D. 2024-Feb-03 00:00:00.0000, 3.199722029042639E+09, 3.000559610901594E+09, -1.646107399828583E+09,
2460350.500000000, A.D. 2024-Feb-10 00:00:00.0000, 3.197010666928854E+09, 3.003255332678357E+09, -1.647342928802054E+09,
2460357.500000000, A.D. 2024-Feb-17 00:00:00.0000, 3.194297741163851E+09, 3.005949581043927E+09, -1.648577676743964E+09,
2460364.500000000, A.D. 2024-Feb-24 00:00:00.0000, 3.191583251938905E+09, 3.008642355509758E+09, -1.649811643067430E+09,
2460371.500000000, A.D. 2024-Mar-02 00:00:00.0000, 3.188867199165385E+09, 3.011333655005744E+09, -1.651044827197825E+09,
2460378.500000000, A.D. 2024-Mar-09 00:00:00.0000, 3.186149582641312E+09, 3.014023477552024E+09, -1.652277228611932E+09,
2460385.500000000, A.D. 2024-Mar-16 00:00:00.0000, 3.183430402771080E+09, 3.016711819965768E+09, -1.653508846925689E+09,
2460392.500000000, A.D. 2024-Mar-23 00:00:00.0000, 3.180709661734742E+09, 3.019398678711971E+09, -1.654739681930445E+09,
2460399.500000000, A.D. 2024-Mar-30 00:00:00.0000, 3.177987362865736E+09, 3.022084051871506E+09, -1.655969733374351E+09,
2460406.500000000, A.D. 2024-Apr-06 00:00:00.0000, 3.175263508493060E+09, 3.024767938858771E+09, -1.657199000787605E+09,
2460413.500000000, A.D. 2024-Apr-13 00:00:00.0000, 3.172538099799053E+09, 3.027450338725402E+09, -1.658427483608902E+09,
2460420.500000000, A.D. 2024-Apr-20 00:00:00.0000, 3.169811137740618E+09, 3.030131249726667E+09, -1.659655181307002E+09,
2460427.500000000, A.D. 2024-Apr-27 00:00:00.0000, 3.167082623516874E+09, 3.032810669589194E+09, -1.660882093404120E+09,
2460434.500000000, A.D. 2024-May-04 00:00:00.0000, 3.164352558671151E+09, 3.035488595776706E+09, -1.662108219466606E+09,
2460441.500000000, A.D. 2024-May-11 00:00:00.0000, 3.161620945065662E+09, 3.038165025652153E+09, -1.663333559093006E+09,
2460448.500000000, A.D. 2024-May-18 00:00:00.0000, 3.158887784810864E+09, 3.040839956558140E+09, -1.664558111905118E+09,
2460455.500000000, A.D. 2024-May-25 00:00:00.0000, 3.156153080174182E+09, 3.043513385808823E+09, -1.665781877544705E+09,
2460462.500000000, A.D. 2024-Jun-01 00:00:00.0000, 3.153416833527987E+09, 3.046185310536202E+09, -1.667004855685834E+09,
2460469.500000000, A.D. 2024-Jun-08 00:00:00.0000, 3.150679047583167E+09, 3.048855727368141E+09, -1.668227046087070E+09,
2460476.500000000, A.D. 2024-Jun-15 00:00:00.0000, 3.147939726307810E+09, 3.051524632483491E+09, -1.669448448675358E+09,
2460483.500000000, A.D. 2024-Jun-22 00:00:00.0000, 3.145198875525796E+09, 3.054192023219693E+09, -1.670669063473081E+09,
2460490.500000000, A.D. 2024-Jun-29 00:00:00.0000, 3.142456501073648E+09, 3.056857899412252E+09, -1.671888890322250E+09,
2460497.500000000, A.D. 2024-Jul-06 00:00:00.0000, 3.139712607160663E+09, 3.059522261995106E+09, -1.673107928850137E+09,
2460504.500000000, A.D. 2024-Jul-13 00:00:00.0000, 3.136967196881568E+09, 3.062185111686087E+09, -1.674326178624204E+09,
2460511.500000000, A.D. 2024-Jul-20 00:00:00.0000, 3.134220272896046E+09, 3.064846448906224E+09, -1.675543639220238E+09,
2460518.500000000, A.D. 2024-Jul-27 00:00:00.0000, 3.131471837619132E+09, 3.067506273973467E+09, -1.676760310221904E+09,
2460525.500000000, A.D. 2024-Aug-03 00:00:00.0000, 3.128721893195423E+09, 3.070164587195983E+09, -1.677976191207475E+09,
2460532.500000000, A.D. 2024-Aug-10 00:00:00.0000, 3.125970441422866E+09, 3.072821388860758E+09, -1.679191281739453E+09,
2460539.500000000, A.D. 2024-Aug-17 00:00:00.0000, 3.123217483673456E+09, 3.075476679139514E+09, -1.680405581359818E+09,
2460546.500000000, A.D. 2024-Aug-24 00:00:00.0000, 3.120463020838678E+09, 3.078130457890069E+09, -1.681619089595549E+09,
2460553.500000000, A.D. 2024-Aug-31 00:00:00.0000, 3.117707053415325E+09, 3.080782724291992E+09, -1.682831805990270E+09,
2460560.500000000, A.D. 2024-Sep-07 00:00:00.0000, 3.114949582097175E+09, 3.083433476443305E+09, -1.684043730185502E+09,
2460567.500000000, A.D. 2024-Sep-14 00:00:00.0000, 3.112190608957783E+09, 3.086082711914406E+09, -1.685254861978199E+09,
2460574.500000000, A.D. 2024-Sep-21 00:00:00.0000, 3.109430137195557E+09, 3.088730429672005E+09, -1.686465201134965E+09,
2460581.500000000, A.D. 2024-Sep-28 00:00:00.0000, 3.106668168953619E+09, 3.091376630145634E+09, -1.687674747182214E+09,
2460588.500000000, A.D. 2024-Oct-05 00:00:00.0000, 3.103904704884164E+09, 3.094021313438514E+09, -1.688883499508847E+09,
2460595.500000000, A.D. 2024-Oct-12 00:00:00.0000, 3.101139745096673E+09, 3.096664478663014E+09, -1.690091457504934E+09,
2460602.500000000, A.D. 2024-Oct-19 00:00:00.0000, 3.098373289739086E+09, 3.099306124130044E+09, -1.691298620597996E+09,
2460609.500000000, A.D. 2024-Oct-26 00:00:00.0000, 3.095605339179571E+09, 3.101946247591151E+09, -1.692504988249416E+09,
2460616.500000000, A.D. 2024-Nov-02 00:00:00.0000, 3.092835894046344E+09, 3.104584846385208E+09, -1.693710559946707E+09,
2460623.500000000, A.D. 2024-Nov-09 00:00:00.0000, 3.090064955222261E+09, 3.107221917510623E+09, -1.694915335198776E+09,
2460630.500000000, A.D. 2024-Nov-16 00:00:00.0000, 3.087292523820246E+09, 3.109857457623682E+09, -1.696119313536497E+09,
2460637.500000000, A.D. 2024-Nov-23 00:00:00.0000, 3.084518601186629E+09, 3.112491462913373E+09, -1.697322494526892E+09,
2460644.500000000, A.D. 2024-Nov-30 00:00:00.0000, 3.081743189140833E+09, 3.115123928810311E+09, -1.698524877823446E+09,
2460651.500000000, A.D. 2024-Dec-07 00:00:00.0000, 3.078966290870948E+09, 3.117754849950615E+09, -1.699726463256553E+09,
2460658.500000000, A.D. 2024-Dec-14 00:00:00.0000, 3.076187911796667E+09, 3.120384221618877E+09, -1.700927250800762E+09,
2460665.500000000, A.D. 2024-Dec-21 00:00:00.0000, 3.073408058081083E+09, 3.123012041429594E+09, -1.702127240307443E+09,
2460672.500000000, A.D. 2024-Dec-28 00:00:00.0000, 3.070626734763887E+09, 3.125638308279830E+09, -1.703326431426079E+09,
2460679.500000000, A.D. 2025-Jan-04 00:00:00.0000, 3.067843946113238E+09, 3.128263020949332E+09, -1.704524823758038E+09,
2460686.500000000, A.D. 2025-Jan-11 00:00:00.0000, 3.065059696375151E+09, 3.130886178008004E+09, -1.705722416939891E+09,
2460693.500000000, A.D. 2025-Jan-18 00:00:00.0000, 3.062273990003567E+09, 3.133507778111937E+09, -1.706919210647004E+09,
2460700.500000000, A.D. 2025-Jan-25 00:00:00.0000, 3.059486831614754E+09, 3.136127820213496E+09, -1.708115204578264E+09,
2460707.500000000, A.D. 2025-Feb-01 00:00:00.0000, 3.056698225855646E+09, 3.138746303655304E+09, -1.709310398441514E+09,
2460714.500000000, A.D. 2025-Feb-08 00:00:00.0000, 3.053908177244666E+09, 3.141363228167806E+09, -1.710504791943196E+09,
2460721.500000000, A.D. 2025-Feb-15 00:00:00.0000, 3.051116690013930E+09, 3.143978593750383E+09, -1.711698384786292E+09,
$$EOE